SL-16 R/B               
1 25407U 98045B   26066.73671864  .00000056  00000+0  52520-4 0  9994
2 25407  71.0114 185.6803 0006624  11.1404 348.9865 14.16189466426825
ISS (ZARYA)             
1 25544U 98067A   26066.77087839  .00014056  00000+0  26707-3 0  9999
2 25544  51.6320  81.8427 0008117 167.9196 192.1989 15.48514260556039
CZ-4B R/B               
1 25732U 99025C   26067.11344792  .00000069  00000+0  54325-4 0  9993
2 25732  98.6630 111.4324 0036835 351.1867  70.2929 14.18265050387947
OKEAN-O                 
1 25860U 99039A   26067.16491919  .00000961  00000+0  13290-3 0  9995
2 25860  97.9445 127.0720 0001275  69.6204 290.5144 14.80332974434166
SL-16 R/B               
1 25861U 99039B   26067.14621828  .00000863  00000+0  11618-3 0  9991
2 25861  97.9969 126.2453 0013456 261.6550  98.3137 14.81729624436637
DELTA 2 R/B             
1 25876U 99041E   26067.09670904  .00001585  00000+0  29297-3 0  9997
2 25876  51.7631 307.6435 0502343 343.7360  14.7942 14.11833684362809
HELIOS 1B               
1 25977U 99064A   26066.96511817  .00002610  00000+0  29297-3 0  9996
2 25977  98.1696 329.1580 0002470  77.2904 282.8588 14.87691939685008
TERRA                   
1 25994U 99068A   26067.13321992  .00000621  00000+0  13563-3 0  9991
2 25994  97.9597 120.6274 0002605 155.0537 230.1693 14.61013036394856
SL-16 R/B               
1 26070U 00006B   26067.10488581 -.00000018  00000+0  15075-4 0  9998
2 26070  71.0011 101.1702 0016887 192.5068 167.5638 14.15825827348330
TITAN 4B R/B            
1 26474U 00047B   26067.10635367  .00006705  00000+0  41764-3 0  9998
2 26474  67.9898  44.9623 0038471  37.2919 323.0890 15.09544173392675
ENVISAT                 
1 27386U 02009A   26066.86525194  .00000201  00000+0  78922-4 0  9991
2 27386  98.3727  20.5060 0001344  83.4028 293.7966 14.39036200258919
IDEFIX & ARIANE 42P R/B 
1 27422U 02021B   26066.74786387  .00000425  00000+0  17794-3 0  9993
2 27422  98.5867   5.3774 0011458 187.9792 172.1210 14.31024715243742
